{
    "links": {
        "self": "http://www.neowsapp.com/rest/v1/neo/3425606?api_key=iIulBulltgU6a56xZRHN4H3l9WmuAYTsLGpBGhQ2"
    },
    "id": "3425606",
    "neo_reference_id": "3425606",
    "name": "(2008 QA1)",
    "designation": "2008 QA1",
    "nasa_jpl_url": "http://ssd.jpl.nasa.gov/sbdb.cgi?sstr=3425606",
    "absolute_magnitude_h": 22.5,
    "estimated_diameter": {
        "kilometers": {
            "estimated_diameter_min": 0.0840533402,
            "estimated_diameter_max": 0.1879489824
        },
        "meters": {
            "estimated_diameter_min": 84.0533402073,
            "estimated_diameter_max": 187.9489824394
        },
        "miles": {
            "estimated_diameter_min": 0.0522283081,
            "estimated_diameter_max": 0.1167860472
        },
        "feet": {
            "estimated_diameter_min": 275.7655606856,
            "estimated_diameter_max": 616.6305395464
        }
    },
    "is_potentially_hazardous_asteroid": false,
    "close_approach_data": [
        {
            "close_approach_date": "2008-09-02",
            "close_approach_date_full": "2008-Sep-02 00:19",
            "epoch_date_close_approach": 1220314740000,
            "relative_velocity": {
                "kilometers_per_second": "15.9883044892",
                "kilometers_per_hour": "57557.8961612507",
                "miles_per_hour": "35764.2383119727"
            },
            "miss_distance": {
                "astronomical": "0.1087568882",
                "lunar": "42.3064295098",
                "kilometers": "16269798.822548134",
                "miles": "10109584.2006828892"
            },
            "orbiting_body": "Earth"
        }
    ],
    "orbital_data": {
        "orbit_id": "14",
        "orbit_determination_date": "2017-04-06 09:03:04",
        "first_observation_date": "2008-08-23",
        "last_observation_date": "2008-09-19",
        "data_arc_in_days": 27,
        "observations_used": 64,
        "orbit_uncertainty": "8",
        "minimum_orbit_intersection": ".108332",
        "jupiter_tisserand_invariant": "3.347",
        "epoch_osculation": "2454707.5",
        "eccentricity": ".5140377983104083",
        "semi_major_axis": "2.220055403491815",
        "inclination": "26.44969157452634",
        "ascending_node_longitude": "336.7445909834714",
        "orbital_period": "1208.214785422166",
        "perihelion_distance": "1.078863011753757",
        "perihelion_argument": "28.21760320786736",
        "aphelion_distance": "3.361247795229872",
        "perihelion_time": "2454734.296977049975",
        "mean_anomaly": "352.0155655646771",
        "mean_motion": ".2979602669522135",
        "equinox": "J2000",
        "orbit_class": {
            "orbit_class_type": "AMO",
            "orbit_class_description": "Near-Earth asteroid orbits similar to that of 1221 Amor",
            "orbit_class_range": "1.017 AU < q (perihelion) < 1.3 AU"
        }
    },
    "is_sentry_object": false
}